CCSDS_OMM_VERS = 2.0
CREATION_DATE  = 
ORIGINATOR     = 

OBJECT_NAME    = KUIPER-00129
OBJECT_ID      = 2025-228M
CENTER_NAME    = EARTH
REF_FRAME      = TEME
TIME_SYSTEM    = UTC
MEAN_ELEMENT_THEORY = SGP/SGP4

EPOCH          = 2025-11-06T17:13:41.437344
MEAN_MOTION    = 15.34252943
ECCENTRICITY   = .0005487
INCLINATION    = 51.8784
RA_OF_ASC_NODE = 194.1241
ARG_OF_PERICENTER = 227.3430
MEAN_ANOMALY   = 132.7093

EPHEMERIS_TYPE = 0
CLASSIFICATION_TYPE = U
NORAD_CAT_ID   = 65958
ELEMENT_SET_NO = 999
REV_AT_EPOCH   = 488
BSTAR          = -.13501E-1
MEAN_MOTION_DOT = -.430207E-2
MEAN_MOTION_DDOT = 0

CCSDS_OMM_VERS = 2.0
CREATION_DATE  = 
ORIGINATOR     = 

OBJECT_NAME    = KUIPER-00130
OBJECT_ID      = 2025-228N
CENTER_NAME    = EARTH
REF_FRAME      = TEME
TIME_SYSTEM    = UTC
MEAN_ELEMENT_THEORY = SGP/SGP4

EPOCH          = 2025-11-06T17:18:28.077984
MEAN_MOTION    = 15.34785455
ECCENTRICITY   = .0005113
INCLINATION    = 51.8781
RA_OF_ASC_NODE = 194.1385
ARG_OF_PERICENTER = 224.8755
MEAN_ANOMALY   = 135.1818

EPHEMERIS_TYPE = 0
CLASSIFICATION_TYPE = U
NORAD_CAT_ID   = 65959
ELEMENT_SET_NO = 999
REV_AT_EPOCH   = 488
BSTAR          = .19161E-2
MEAN_MOTION_DOT = .65816E-3
MEAN_MOTION_DDOT = 0

CCSDS_OMM_VERS = 2.0
CREATION_DATE  = 
ORIGINATOR     = 

OBJECT_NAME    = KUIPER-00134
OBJECT_ID      = 2025-228P
CENTER_NAME    = EARTH
REF_FRAME      = TEME
TIME_SYSTEM    = UTC
MEAN_ELEMENT_THEORY = SGP/SGP4

EPOCH          = 2025-11-06T17:20:46.070016
MEAN_MOTION    = 15.34649221
ECCENTRICITY   = .0004969
INCLINATION    = 51.8782
RA_OF_ASC_NODE = 194.1495
ARG_OF_PERICENTER = 234.4270
MEAN_ANOMALY   = 125.6253

EPHEMERIS_TYPE = 0
CLASSIFICATION_TYPE = U
NORAD_CAT_ID   = 65960
ELEMENT_SET_NO = 999
REV_AT_EPOCH   = 488
BSTAR          = .10197E-2
MEAN_MOTION_DOT = .34551E-3
MEAN_MOTION_DDOT = 0

CCSDS_OMM_VERS = 2.0
CREATION_DATE  = 
ORIGINATOR     = 

OBJECT_NAME    = KUIPER-00135
OBJECT_ID      = 2025-228Q
CENTER_NAME    = EARTH
REF_FRAME      = TEME
TIME_SYSTEM    = UTC
MEAN_ELEMENT_THEORY = SGP/SGP4

EPOCH          = 2025-11-06T17:20:18.021120
MEAN_MOTION    = 15.34627542
ECCENTRICITY   = .000492
INCLINATION    = 51.8789
RA_OF_ASC_NODE = 194.1562
ARG_OF_PERICENTER = 222.6152
MEAN_ANOMALY   = 137.4452

EPHEMERIS_TYPE = 0
CLASSIFICATION_TYPE = U
NORAD_CAT_ID   = 65961
ELEMENT_SET_NO = 999
REV_AT_EPOCH   = 488
BSTAR          = .84296E-3
MEAN_MOTION_DOT = .28452E-3
MEAN_MOTION_DDOT = 0

CCSDS_OMM_VERS = 2.0
CREATION_DATE  = 
ORIGINATOR     = 

OBJECT_NAME    = KUIPER-00136
OBJECT_ID      = 2025-228R
CENTER_NAME    = EARTH
REF_FRAME      = TEME
TIME_SYSTEM    = UTC
MEAN_ELEMENT_THEORY = SGP/SGP4

EPOCH          = 2025-11-06T17:11:06.438336
MEAN_MOTION    = 15.34972554
ECCENTRICITY   = .0005693
INCLINATION    = 51.8787
RA_OF_ASC_NODE = 194.1127
ARG_OF_PERICENTER = 214.6816
MEAN_ANOMALY   = 145.3799

EPHEMERIS_TYPE = 0
CLASSIFICATION_TYPE = U
NORAD_CAT_ID   = 65962
ELEMENT_SET_NO = 999
REV_AT_EPOCH   = 488
BSTAR          = .12702E-3
MEAN_MOTION_DOT = .3996E-4
MEAN_MOTION_DDOT = 0

CCSDS_OMM_VERS = 2.0
CREATION_DATE  = 
ORIGINATOR     = 

OBJECT_NAME    = KUIPER-00137
OBJECT_ID      = 2025-228S
CENTER_NAME    = EARTH
REF_FRAME      = TEME
TIME_SYSTEM    = UTC
MEAN_ELEMENT_THEORY = SGP/SGP4

EPOCH          = 2025-11-06T17:19:15.106368
MEAN_MOTION    = 15.34654845
ECCENTRICITY   = .0004849
INCLINATION    = 51.8794
RA_OF_ASC_NODE = 194.1499
ARG_OF_PERICENTER = 229.2895
MEAN_ANOMALY   = 130.7670

EPHEMERIS_TYPE = 0
CLASSIFICATION_TYPE = U
NORAD_CAT_ID   = 65963
ELEMENT_SET_NO = 999
REV_AT_EPOCH   = 488
BSTAR          = .58591E-3
MEAN_MOTION_DOT = .19654E-3
MEAN_MOTION_DDOT = 0

CCSDS_OMM_VERS = 2.0
CREATION_DATE  = 
ORIGINATOR     = 

OBJECT_NAME    = KUIPER-00138
OBJECT_ID      = 2025-228T
CENTER_NAME    = EARTH
REF_FRAME      = TEME
TIME_SYSTEM    = UTC
MEAN_ELEMENT_THEORY = SGP/SGP4

EPOCH          = 2025-11-06T17:23:22.625088
MEAN_MOTION    = 15.34418277
ECCENTRICITY   = .0006285
INCLINATION    = 51.8784
RA_OF_ASC_NODE = 194.1636
ARG_OF_PERICENTER = 241.7843
MEAN_ANOMALY   = 118.2508

EPHEMERIS_TYPE = 0
CLASSIFICATION_TYPE = U
NORAD_CAT_ID   = 65964
ELEMENT_SET_NO = 999
REV_AT_EPOCH   = 488
BSTAR          = .15951E-2
MEAN_MOTION_DOT = .54013E-3
MEAN_MOTION_DDOT = 0

CCSDS_OMM_VERS = 2.0
CREATION_DATE  = 
ORIGINATOR     = 

OBJECT_NAME    = KUIPER-00140
OBJECT_ID      = 2025-228U
CENTER_NAME    = EARTH
REF_FRAME      = TEME
TIME_SYSTEM    = UTC
MEAN_ELEMENT_THEORY = SGP/SGP4

EPOCH          = 2025-11-06T17:24:17.979840
MEAN_MOTION    = 15.34450618
ECCENTRICITY   = .0005248
INCLINATION    = 51.8792
RA_OF_ASC_NODE = 194.1714
ARG_OF_PERICENTER = 241.0840
MEAN_ANOMALY   = 118.9619

EPHEMERIS_TYPE = 0
CLASSIFICATION_TYPE = U
NORAD_CAT_ID   = 65965
ELEMENT_SET_NO = 999
REV_AT_EPOCH   = 488
BSTAR          = .3056E-3
MEAN_MOTION_DOT = .9989E-4
MEAN_MOTION_DDOT = 0

CCSDS_OMM_VERS = 2.0
CREATION_DATE  = 
ORIGINATOR     = 

OBJECT_NAME    = KUIPER-00141
OBJECT_ID      = 2025-228V
CENTER_NAME    = EARTH
REF_FRAME      = TEME
TIME_SYSTEM    = UTC
MEAN_ELEMENT_THEORY = SGP/SGP4

EPOCH          = 2025-11-06T17:15:00.749952
MEAN_MOTION    = 15.34889703
ECCENTRICITY   = .0005717
INCLINATION    = 51.8781
RA_OF_ASC_NODE = 194.1245
ARG_OF_PERICENTER = 221.0387
MEAN_ANOMALY   = 139.0169

EPHEMERIS_TYPE = 0
CLASSIFICATION_TYPE = U
NORAD_CAT_ID   = 65966
ELEMENT_SET_NO = 999
REV_AT_EPOCH   = 488
BSTAR          = .10591E-2
MEAN_MOTION_DOT = .3619E-3
MEAN_MOTION_DDOT = 0

CCSDS_OMM_VERS = 2.0
CREATION_DATE  = 
ORIGINATOR     = 

OBJECT_NAME    = KUIPER-00146
OBJECT_ID      = 2025-228W
CENTER_NAME    = EARTH
REF_FRAME      = TEME
TIME_SYSTEM    = UTC
MEAN_ELEMENT_THEORY = SGP/SGP4

EPOCH          = 2025-11-06T17:15:45.772128
MEAN_MOTION    = 15.34859933
ECCENTRICITY   = .000566
INCLINATION    = 51.8791
RA_OF_ASC_NODE = 194.1354
ARG_OF_PERICENTER = 222.7278
MEAN_ANOMALY   = 137.3268

EPHEMERIS_TYPE = 0
CLASSIFICATION_TYPE = U
NORAD_CAT_ID   = 65967
ELEMENT_SET_NO = 999
REV_AT_EPOCH   = 488
BSTAR          = .10732E-2
MEAN_MOTION_DOT = .36644E-3
MEAN_MOTION_DDOT = 0

CCSDS_OMM_VERS = 2.0
CREATION_DATE  = 
ORIGINATOR     = 

OBJECT_NAME    = KUIPER-00149
OBJECT_ID      = 2025-228X
CENTER_NAME    = EARTH
REF_FRAME      = TEME
TIME_SYSTEM    = UTC
MEAN_ELEMENT_THEORY = SGP/SGP4

EPOCH          = 2025-11-06T17:11:42.030816
MEAN_MOTION    = 15.35027235
ECCENTRICITY   = .0005528
INCLINATION    = 51.8784
RA_OF_ASC_NODE = 194.1106
ARG_OF_PERICENTER = 218.8709
MEAN_ANOMALY   = 141.1879

EPHEMERIS_TYPE = 0
CLASSIFICATION_TYPE = U
NORAD_CAT_ID   = 65968
ELEMENT_SET_NO = 999
REV_AT_EPOCH   = 488
BSTAR          = .68521E-3
MEAN_MOTION_DOT = .23342E-3
MEAN_MOTION_DDOT = 0

CCSDS_OMM_VERS = 2.0
CREATION_DATE  = 
ORIGINATOR     = 

OBJECT_NAME    = KUIPER-00154
OBJECT_ID      = 2025-228Y
CENTER_NAME    = EARTH
REF_FRAME      = TEME
TIME_SYSTEM    = UTC
MEAN_ELEMENT_THEORY = SGP/SGP4

EPOCH          = 2025-11-06T17:10:10.451136
MEAN_MOTION    = 15.35101285
ECCENTRICITY   = .0005747
INCLINATION    = 51.8781
RA_OF_ASC_NODE = 194.1043
ARG_OF_PERICENTER = 215.6641
MEAN_ANOMALY   = 144.3962

EPHEMERIS_TYPE = 0
CLASSIFICATION_TYPE = U
NORAD_CAT_ID   = 65969
ELEMENT_SET_NO = 999
REV_AT_EPOCH   = 488
BSTAR          = .90833E-3
MEAN_MOTION_DOT = .31175E-3
MEAN_MOTION_DDOT = 0

