KUIPER-00129            
1 65958U 25228M   25310.71784071 -.00430207  00000+0 -13501-1 0  9996
2 65958  51.8784 194.1241 0005487 227.3430 132.7093 15.34252943  4888
KUIPER-00130            
1 65959U 25228N   25310.72115831  .00065816  00000+0  19161-2 0  9997
2 65959  51.8781 194.1385 0005113 224.8755 135.1818 15.34785455  4884
KUIPER-00134            
1 65960U 25228P   25310.72275544  .00034551  00000+0  10197-2 0  9999
2 65960  51.8782 194.1495 0004969 234.4270 125.6253 15.34649221  4883
KUIPER-00135            
1 65961U 25228Q   25310.72243080  .00028452  00000+0  84296-3 0  9995
2 65961  51.8789 194.1562 0004920 222.6152 137.4452 15.34627542  4885
KUIPER-00136            
1 65962U 25228R   25310.71604674  .00003996  00000+0  12702-3 0  9994
2 65962  51.8787 194.1127 0005693 214.6816 145.3799 15.34972554  4885
KUIPER-00137            
1 65963U 25228S   25310.72170262  .00019654  00000+0  58591-3 0  9991
2 65963  51.8794 194.1499 0004849 229.2895 130.7670 15.34654845  4883
KUIPER-00138            
1 65964U 25228T   25310.72456742  .00054013  00000+0  15951-2 0  9992
2 65964  51.8784 194.1636 0006285 241.7843 118.2508 15.34418277  4882
KUIPER-00140            
1 65965U 25228U   25310.72520810  .00009989  00000+0  30560-3 0  9997
2 65965  51.8792 194.1714 0005248 241.0840 118.9619 15.34450618  4882
KUIPER-00141            
1 65966U 25228V   25310.71875868  .00036190  00000+0  10591-2 0  9998
2 65966  51.8781 194.1245 0005717 221.0387 139.0169 15.34889703  4880
KUIPER-00146            
1 65967U 25228W   25310.71927977  .00036644  00000+0  10732-2 0  9999
2 65967  51.8791 194.1354 0005660 222.7278 137.3268 15.34859933  4880
KUIPER-00149            
1 65968U 25228X   25310.71645869  .00023342  00000+0  68521-3 0  9998
2 65968  51.8784 194.1106 0005528 218.8709 141.1879 15.35027235  4880
KUIPER-00154            
1 65969U 25228Y   25310.71539874  .00031175  00000+0  90833-3 0  9991
2 65969  51.8781 194.1043 0005747 215.6641 144.3962 15.35101285  4887
